CCSDS_OMM_VERS,COMMENT,CREATION_DATE,ORIGINATOR,OBJECT_NAME,OBJECT_ID,CENTER_NAME,REF_FRAME,TIME_SYSTEM,MEAN_ELEMENT_THEORY,EPOCH,MEAN_MOTION,ECCENTRICITY,INCLINATION,RA_OF_ASC_NODE,ARG_OF_PERICENTER,MEAN_ANOMALY,EPHEMERIS_TYPE,CLASSIFICATION_TYPE,NORAD_CAT_ID,ELEMENT_SET_NO,REV_AT_EPOCH,BSTAR,MEAN_MOTION_DOT,MEAN_MOTION_DDOT,SEMIMAJOR_AXIS,PERIOD,APOAPSIS,PERIAPSIS,OBJECT_TYPE,RCS_SIZE,COUNTRY_CODE,LAUNCH_DATE,SITE,DECAY_DATE,DECAYED,FILE,GP_ID,TLE_LINE0,TLE_LINE1,TLE_LINE2,height_km,latitude,longitude,velocity_kms,id
2.0,GENERATED VIA SPACE-TRACK.ORG API,2021-09-12T19:06:11,18 SPCS,STARLINK-1632,2020-057BF,EARTH,TEME,UTC,SGP4,2021-09-12T17:44:18.449952,16.3655041,0.001412,53.041,22.6696,336.1409,24.3424,0,U,46170,999,6097,0.0021929,0.21004112,1.2485e-05,6553.132,87.99,184.25,165.744,PAYLOAD,LARGE,US,2020-08-18,AFETR,2021-09-12,1,3114000,184550435,0 STARLINK-1632,1 46170U 20057BF  21255.73910243  .21004112  12485-4  21929-2 0  9996,2 46170  53.0410  22.6696 0014120 336.1409  24.3424 16.36550410 60970,,,,,5f487be7d76203000692e51b
2.0,GENERATED VIA SPACE-TRACK.ORG API,2022-11-30T17:18:05,18 SPCS,STARLINK-1615,2020-057BB,EARTH,TEME,UTC,SGP4,2022-11-30T03:27:05.761152,15.06387139,0.0001691,53.0546,283.6424,59.7232,300.3924,0,U,46166,999,12587,8.5993e-05,9.99e-06,0.0,6925.388,95.593,548.424,546.082,PAYLOAD,LARGE,US,2020-08-18,AFETR,,0,3675646,219171195,0 STARLINK-1615,1 46166U 20057BB  22334.14381668  .00000999  00000-0  85993-4 0  9993,2 46166  53.0546 283.6424 0001691  59.7232 300.3924 15.06387139125879,557.9184771849295,-33.20568468840715,-81.76964908415682,7.582268641131057,5f487be7d76203000692e51a
2.0,GENERATED VIA SPACE-TRACK.ORG API,2022-11-30T17:18:05,18 SPCS,STARLINK-1593,2020-057C,EARTH,TEME,UTC,SGP4,2022-11-30T13:48:06.369408,15.0641422,0.0002002,53.0536,281.6867,56.6067,303.5113,0,U,46119,999,12719,0.0003775,5.348e-05,0.0,6925.305,95.591,548.556,545.784,PAYLOAD,LARGE,US,2020-08-18,AFETR,,0,3675646,219171690,0 STARLINK-1593,1 46119U 20057C   22334.57507372  .00005348  00000-0  37750-3 0  9990,2 46119  53.0536 281.6867 0002002  56.6067 303.5113 15.06414220127198,549.1417683220761,33.06660627995728,98.3804866496009,7.591812282350055,5f487be7d76203000692e518
2.0,GENERATED VIA SPACE-TRACK.ORG API,2022-11-30T17:18:05,18 SPCS,STARLINK-1619,2020-057K,EARTH,TEME,UTC,SGP4,2022-11-30T13:16:15.553920,15.06389716,0.0001453,53.0544,281.8089,59.8485,300.2648,0,U,46126,999,12593,-2.3727e-05,-6.35e-06,0.0,6925.38,95.593,548.251,546.239,PAYLOAD,LARGE,US,2020-08-18,AFETR,,0,3675646,219172939,0 STARLINK-1619,1 46126U 20057K   22334.55295780 -.00000635  00000-0 -23727-4 0  9999,2 46126  53.0544 281.8089 0001453  59.8485 300.2648 15.06389716125939,565.962346984551,-51.31990266090001,-163.3447628513834,7.577471488827723,5f487be7d76203000692e51c
2.0,GENERATED VIA SPACE-TRACK.ORG API,2022-11-30T17:18:05,18 SPCS,STARLINK-1603,2020-057AX,EARTH,TEME,UTC,SGP4,2022-11-30T05:31:48.618912,15.06402815,0.0001654,53.0539,263.2538,61.3101,298.8055,0,U,46162,999,12742,0.00015379,2.01e-05,0.0,6925.34,95.592,548.35,546.059,PAYLOAD,LARGE,US,2020-08-18,AFETR,,0,3675646,219171695,0 STARLINK-1603,1 46162U 20057AX  22334.23042383  .00002010  00000-0  15379-3 0  9993,2 46162  53.0539 263.2538 0001654  61.3101 298.8055 15.06402815127428,554.1842170318787,-21.588095896949365,124.75659022369862,7.58420191167902,5f487be7d76203000692e51e
2.0,GENERATED VIA SPACE-TRACK.ORG API,2022-11-30T17:18:05,18 SPCS,STARLINK-1635,2020-057BH,EARTH,TEME,UTC,SGP4,2022-11-30T05:10:35.829408,15.06390766,0.0001833,53.0563,263.3048,56.2422,303.8742,0,U,46172,999,12741,5.2405e-05,4.99e-06,0.0,6925.377,95.593,548.511,545.972,PAYLOAD,LARGE,US,2020-08-18,AFETR,,0,3675646,219171447,0 STARLINK-1635,1 46172U 20057BH  22334.21569247  .00000499  00000-0  52405-4 0  9996,2 46172  53.0563 263.3048 0001833  56.2422 303.8742 15.06390766127411,565.297138274298,-49.994465736720784,-135.4907536151681,7.577901892304398,5f487be7d76203000692e536
2.0,GENERATED VIA SPACE-TRACK.ORG API,2022-11-30T17:18:05,18 SPCS,STARLINK-1642,2020-057AP,EARTH,TEME,UTC,SGP4,2022-11-30T13:12:16.583616,15.06389015,0.000165,53.0543,271.8083,65.619,294.4971,0,U,46154,999,12607,-5.0802e-05,-1.038e-05,0.0,6925.382,95.593,548.39,546.105,PAYLOAD,LARGE,US,2020-08-18,AFETR,,0,3675646,219171694,0 STARLINK-1642,1 46154U 20057AP  22334.55019194 -.00001038  00000-0 -50802-4 0  9995,2 46154  53.0543 271.8083 0001650  65.6190 294.4971 15.06389015126070,566.7421680009911,-53.15615244780515,-149.05323831400113,7.577021748070409,5f487be7d76203000692e534
2.0,GENERATED VIA SPACE-TRACK.ORG API,2022-11-30T14:26:13,18 SPCS,STARLINK-1610,2020-057AY,EARTH,TEME,UTC,SGP4,2022-11-30T03:53:37.893696,15.06390133,0.0001598,53.0569,243.5566,63.1229,296.9923,0,U,46163,999,12709,-2.5525e-05,-6.62e-06,0.0,6925.379,95.593,548.35,546.137,PAYLOAD,LARGE,US,2020-08-18,AFETR,,0,3674880,219134570,0 STARLINK-1610,1 46163U 20057AY  22334.16224414 -.00000662  00000-0 -25525-4 0  9991,2 46163  53.0569 243.5566 0001598  63.1229 296.9923 15.06390133127097,549.12424723618,-7.643631510060612,-82.966946357783,7.588249116127117,5f487be7d76203000692e53f
2.0,GENERATED VIA SPACE-TRACK.ORG API,2022-11-30T03:22:20,18 SPCS,STARLINK-1613,2020-057BA,EARTH,TEME,UTC,SGP4,2022-11-29T19:52:06.515616,15.20559398,0.000633,53.0505,270.2833,74.8058,285.3637,0,U,46165,999,12603,0.00035647,7.587e-05,0.0,6882.289,94.702,508.511,499.798,PAYLOAD,LARGE,US,2020-08-18,AFETR,,0,3673849,219108378,0 STARLINK-1613,1 46165U 20057BA  22333.82785319  .00007587  00000-0  35647-3 0  9997,2 46165  53.0505 270.2833 0006330  74.8058 285.3637 15.20559398126034,503.30848680537747,37.31023104363697,-17.313600474574866,7.619542200825578,5f487be7d76203000692e54b
2.0,GENERATED VIA SPACE-TRACK.ORG API,2022-11-30T14:26:13,18 SPCS,STARLINK-1623,2020-057N,EARTH,TEME,UTC,SGP4,2022-11-30T03:32:24.448416,15.06388563,0.0001663,53.055,243.6171,77.7647,282.3528,0,U,46129,999,12709,0.00015926,2.091e-05,0.0,6925.384,95.593,548.4,546.097,PAYLOAD,LARGE,US,2020-08-18,AFETR,,0,3674883,219135018,0 STARLINK-1623,1 46129U 20057N   22334.14750519  .00002091  00000-0  15926-3 0  9990,2 46129  53.0550 243.6171 0001663  77.7647 282.3528 15.06388563127094,551.7173267810804,49.05543659635768,-17.661362976128274,7.592570153678438,5f487be7d76203000692e54c
2.0,GENERATED VIA SPACE-TRACK.ORG API,2022-11-30T17:18:05,18 SPCS,STARLINK-1598,2020-057AV,EARTH,TEME,UTC,SGP4,2022-11-30T05:58:22.309248,15.06384667,0.0001804,53.0562,263.1632,55.6835,304.4324,0,U,46160,999,12741,-6.1352e-05,-1.195e-05,0.0,6925.396,95.593,548.51,546.011,PAYLOAD,LARGE,US,2020-08-18,AFETR,,0,3675646,219172195,0 STARLINK-1598,1 46160U 20057AV  22334.24886932 -.00001195  00000-0 -61352-4 0  9996,2 46160  53.0562 263.1632 0001804  55.6835 304.4324 15.06384667127419,552.2837226256406,49.97381933294921,44.599824234214765,7.592167222918256,5f487be7d76203000692e54e
2.0,GENERATED VIA SPACE-TRACK.ORG API,2022-11-30T17:18:05,18 SPCS,STARLINK-1633,2020-057BG,EARTH,TEME,UTC,SGP4,2022-11-30T12:47:04.121376,15.06391191,0.0002146,53.0561,261.8866,49.1449,310.9725,0,U,46171,999,12746,6.9384e-05,7.52e-06,0.0,6925.376,95.593,548.727,545.754,PAYLOAD,LARGE,US,2020-08-18,AFETR,,0,3675646,219171696,0 STARLINK-1633,1 46171U 20057BG  22334.53268659  .00000752  00000-0  69384-4 0  9999,2 46171  53.0561 261.8866 0002146  49.1449 310.9725 15.06391191127465,546.4730634470097,5.5764627347262214,-68.28078702650787,7.591045166969697,5f487be7d76203000692e54f
2.0,GENERATED VIA SPACE-TRACK.ORG API,2022-11-30T14:26:13,18 SPCS,STARLINK-1628,2020-057BE,EARTH,TEME,UTC,SGP4,2022-11-30T06:21:33.570432,15.05564592,0.0001623,53.0025,283.0839,65.113,295.0026,0,U,46169,999,12649,0.00027254,3.692e-05,0.0,6927.91,95.645,550.9,548.651,PAYLOAD,LARGE,US,2020-08-18,AFETR,,0,3674886,219134646,0 STARLINK-1628,1 46169U 20057BE  22334.26497188  .00003692  00000-0  27254-3 0  9992,2 46169  53.0025 283.0839 0001623  65.1130 295.0026 15.05564592126492,550.3191860555607,22.111301848774552,125.05658106525873,7.589923484998744,5f487be7d76203000692e552
2.0,GENERATED VIA SPACE-TRACK.ORG API,2022-11-30T03:22:20,18 SPCS,STARLINK-1621,2020-057L,EARTH,TEME,UTC,SGP4,2022-11-29T19:32:02.691456,15.06399232,0.0002282,53.0549,265.1124,45.5076,314.6099,0,U,46127,999,12609,0.00026797,3.712e-05,0.0,6925.351,95.592,548.796,545.636,PAYLOAD,LARGE,US,2020-08-18,AFETR,,0,3673849,219109125,0 STARLINK-1621,1 46127U 20057L   22333.81392004  .00003712  00000-0  26797-3 0  9991,2 46127  53.0549 265.1124 0002282  45.5076 314.6099 15.06399232126090,552.1980558802443,52.20576250727835,17.45756961402304,7.592717791739538,5f487be7d76203000692e56f
2.0,GENERATED VIA SPACE-TRACK.ORG API,2022-11-30T14:26:13,18 SPCS,STARLINK-1639,2020-057U,EARTH,TEME,UTC,SGP4,2022-11-30T04:25:29.374464,15.06384844,0.0001804,53.0561,243.4593,56.244,303.872,0,U,46135,999,12709,7.197e-05,7.9e-06,0.0,6925.395,95.593,548.509,546.011,PAYLOAD,LARGE,US,2020-08-18,AFETR,,0,3674905,219135111,0 STARLINK-1639,1 46135U 20057U   22334.18436776  .00000790  00000-0  71970-4 0  9993,2 46135  53.0561 243.4593 0001804  56.2440 303.8720 15.06384844127090,560.9454725523356,-38.3066674975044,139.00959203654887,7.580051278692705,5f487be7d76203000692e570
2.0,GENERATED VIA SPACE-TRACK.ORG API,2022-11-30T17:18:05,18 SPCS,STARLINK-1605,2020-057G,EARTH,TEME,UTC,SGP4,2022-11-30T10:58:15.106656,15.06391865,0.0001673,53.0542,242.2359,53.0123,307.1019,0,U,46123,999,12775,2.9417e-05,1.57e-06,0.0,6925.373,95.593,548.397,546.08,PAYLOAD,LARGE,US,2020-08-18,AFETR,,0,3675646,219171190,0 STARLINK-1605,1 46123U 20057G   22334.45711929  .00000157  00000-0  29417-4 0  9992,2 46123  53.0542 242.2359 0001673  53.0123 307.1019 15.06391865127752,550.1629986709786,42.268913670806064,-49.62687778056355,7.592738872643818,5f487be7d76203000692e572
